NORAD_CAT_ID,OBJECT_NAME,OBJECT_TYPE,EPOCH,MEAN_MOTION,ECCENTRICITY,INCLINATION,RA_OF_ASC_NODE,ARG_OF_PERICENTER,MEAN_ANOMALY,BSTAR,MEAN_MOTION_DOT,MEAN_MOTION_DDOT,TLE_LINE0,TLE_LINE1,TLE_LINE2,SEMIMAJOR_AXIS,PERIOD,APOGEE,PERIGEE,DECAYED
52622.0,STARLINK-4008,PAYLOAD,2022-08-29 04:00:00,15.08819291,0.0001302,53.218,308.5181,83.4427,98.5079,0.0016719999999999,0.00026407,0.0,0 STARLINK-4008,1 52622U 22052AA  22241.16667824  .00026407  00000-0  16720-2 0  9996,2 52622  53.2180 308.5181 0001302  83.4427  98.5079 15.08819291 16636,6917.944,95.439,540.7090000000002,538.908,0.0
52622.0,STARLINK-4008,PAYLOAD,2022-08-29 14:00:01,15.08814291,0.0001381,53.218,306.6497,70.5614,215.8731,0.0025116999999999,0.00039884,0.0,0 STARLINK-4008,1 52622U 22052AA  22241.58334491  .00039884  00000-0  25117-2 0  9996,2 52622  53.2180 306.6497 0001381  70.5614 215.8731 15.08814291  1309,6917.959,95.439,540.779,538.869,0.0
52622.0,STARLINK-4008,PAYLOAD,2022-08-29 20:00:01,15.0885345,0.0001286999999999,53.2178,305.5263,73.7986,131.3138,-0.0019847,-0.00031747,0.0,0 STARLINK-4008,1 52622U 22052AA  22241.83334491 -.00031747  00000-0 -19847-2 0  9999,2 52622  53.2178 305.5263 0001287  73.7986 131.3138 15.08853450 16744,6917.839,95.437,540.595,538.814,0.0
52622.0,STARLINK-4008,PAYLOAD,2022-08-29 22:00:00,15.08841991,0.0001262999999999,53.218,305.1518,76.5361,221.4794,-0.00068488,-0.00011172,0.0,0 STARLINK-4008,1 52622U 22052AA  22241.91667824 -.00011172  00000-0 -68488-3 0  9993,2 52622  53.2180 305.1518 0001263  76.5361 221.4794 15.08841991  1300,6917.874,95.437,540.613,538.866,0.0
52622.0,STARLINK-4008,PAYLOAD,2022-08-30 12:00:00,15.088454,0.0001383,53.2179,302.5344,71.3581,156.9539,-0.0003476,-5.817e-05,0.0,0 STARLINK-4008,1 52622U 22052AA  22242.50001157 -.00005817  00000-0 -34760-3 0  9995,2 52622  53.2179 302.5344 0001383  71.3581 156.9539 15.08845400 16849,6917.864000000001,95.437,540.686,538.7719999999998,0.0
52622.0,STARLINK-4008,PAYLOAD,2022-08-30 14:00:01,15.08838264,0.0001385,53.2179,302.1604,70.0238,251.1908,0.00043743,6.68e-05,0.0,0 STARLINK-4008,1 52622U 22052AA  22242.58334491  .00006680  00000-0  43743-3 0  9991,2 52622  53.2179 302.1604 0001385  70.0238 251.1908 15.08838264  1304,6917.886,95.438,540.7090000000002,538.793,0.0
52622.0,STARLINK-4008,PAYLOAD,2022-08-30 22:00:00,15.08840067,0.0001315,53.2176,300.6622,74.5018,258.3107,-0.0025294,-0.00040318,0.0,0 STARLINK-4008,1 52622U 22052AA  22242.91667824 -.00040318  00000-0 -25294-2 0  9995,2 52622  53.2176 300.6622 0001315  74.5018 258.3107 15.08840067  1306,6917.88,95.438,540.655,538.835,0.0
52622.0,STARLINK-4008,PAYLOAD,2022-08-31 14:00:01,15.08811361,0.0001408,53.2176,297.6713,71.1077,284.8712,0.0026055999999999,0.00041391,0.0,0 STARLINK-4008,1 52622U 22052AA  22243.58334491  .00041391  00000-0  26056-2 0  9997,2 52622  53.2176 297.6713 0001408  71.1077 284.8712 15.08811361  1304,6917.968000000003,95.439,540.807,538.859,0.0
52622.0,STARLINK-4008,PAYLOAD,2022-08-31 20:00:01,15.08851075,0.0001328,53.2174,296.5477,75.6621,198.9978,-0.0020005,-0.00031994,0.0,0 STARLINK-4008,1 52622U 22052AA  22243.83334491 -.00031994  00000-0 -20005-2 0  9993,2 52622  53.2174 296.5477 0001328  75.6621 198.9978 15.08851075 17045,6917.847,95.437,540.63,538.793,0.0
52622.0,STARLINK-4008,PAYLOAD,2022-08-31 22:00:00,15.08830698,0.0001309,53.2175,296.1732,79.2935,288.2717,0.00052199,8.027e-05,0.0,0 STARLINK-4008,1 52622U 22052AA  22243.91667824  .00008027  00000-0  52199-3 0  9990,2 52622  53.2175 296.1732 0001309  79.2935 288.2717 15.08830698  1307,6917.909000000002,95.438,540.679,538.868,0.0
52622.0,STARLINK-4008,PAYLOAD,2022-09-01 12:00:00,15.08830582,0.0001406,53.2173,293.5561,72.4733,225.3811,0.0012200999999999,0.00019178,0.0,0 STARLINK-4008,1 52622U 22052AA  22244.50001157  .00019178  00000-0  12201-2 0  9995,2 52622  53.2173 293.5561 0001406  72.4733 225.3811 15.08830582 17143,6917.909000000002,95.438,540.747,538.802,0.0
52622.0,STARLINK-4008,PAYLOAD,2022-09-01 14:00:01,15.08823056,0.0001371,53.2172,293.182,71.048,319.771,0.0027494,0.0004372,0.0,0 STARLINK-4008,1 52622U 22052AA  22244.58335648  .00043720  00000-0  27494-2 0  9998,2 52622  53.2172 293.1820 0001371  71.0480 319.7710 15.08823056  1306,6917.932,95.439,540.746,538.849,0.0
52622.0,STARLINK-4008,PAYLOAD,2022-09-01 22:00:00,15.08836816,0.0001286,53.217,291.6839,79.9645,322.3912,0.0010964,0.00017203,0.0,0 STARLINK-4008,1 52622U 22052AA  22244.91667824  .00017203  00000-0  10964-2 0  9990,2 52622  53.2170 291.6839 0001286  79.9645 322.3912 15.08836816  1304,6917.89,95.438,540.645,538.865,0.0
52622.0,STARLINK-4008,PAYLOAD,2022-09-02 12:00:02,15.08807939,0.0001284999999999,53.217,289.0668,70.1934,262.5305,0.0015327,0.00024168,0.0,0 STARLINK-4008,1 52622U 22052AA  22245.50002315  .00024168  00000-0  15327-2 0  9990,2 52622  53.2170 289.0668 0001285  70.1934 262.5305 15.08807939 17298,6917.978,95.44,540.732,538.9540000000002,0.0
52622.0,STARLINK-4008,PAYLOAD,2022-09-02 14:00:01,15.08801648,0.0001242,53.2168,288.6928,67.8234,357.7315,0.0027167,0.00043168,0.0,0 STARLINK-4008,1 52622U 22052AA  22245.58334491  .00043168  00000-0  27167-2 0  9997,2 52622  53.2168 288.6928 0001242  67.8234 357.7315 15.08801648  1302,6917.998000000001,95.44,540.722,539.003,0.0
52622.0,STARLINK-4008,PAYLOAD,2022-09-02 22:00:01,15.08811072,0.0001155,53.2168,287.1946,77.3922,359.8001,0.0014938,0.00023547,0.0,0 STARLINK-4008,1 52622U 22052AA  22245.91668981  .00023547  00000-0  14938-2 0  9999,2 52622  53.2168 287.1946 0001155  77.3922 359.8001 15.08811072  1306,6917.969,95.439,540.633,539.035,0.0
52622.0,STARLINK-4008,PAYLOAD,2022-09-03 12:00:00,15.08814272,0.0001308,53.2169,284.5778,67.7529,299.6419,0.0020279,0.00032111,0.0,0 STARLINK-4008,1 52622U 22052AA  22246.50001157  .00032111  00000-0  20279-2 0  9993,2 52622  53.2169 284.5778 0001308  67.7529 299.6419 15.08814272 17448,6917.959,95.439,540.729,538.919,0.0
52622.0,STARLINK-4008,PAYLOAD,2022-09-03 14:00:01,15.08813138,0.0001272,53.2166,284.2037,65.1221,35.1678,0.0026477,0.00042071,0.0,0 STARLINK-4008,1 52622U 22052AA  22246.58334491  .00042071  00000-0  26477-2 0  9993,2 52622  53.2166 284.2037 0001272  65.1221  35.1678 15.08813138  1309,6917.962,95.439,540.707,538.948,0.0
52622.0,STARLINK-4008,PAYLOAD,2022-09-03 22:00:00,15.08822697,0.0001179,53.2168,282.7055,74.2964,37.5866,0.0020708,0.00032807,0.0,0 STARLINK-4008,1 52622U 22052AA  22246.91667824  .00032807  00000-0  20708-2 0  9996,2 52622  53.2168 282.7055 0001179  74.2964  37.5866 15.08822697  1300,6917.933000000001,95.439,540.614,538.9830000000002,0.0
52622.0,STARLINK-4008,PAYLOAD,2022-09-04 12:00:00,15.08837506,0.0001382,53.217,280.0887,65.1252,337.057,0.0013589,0.00021404,0.0,0 STARLINK-4008,1 52622U 22052AA  22247.50001157  .00021404  00000-0  13589-2 0  9993,2 52622  53.2170 280.0887 0001382  65.1252 337.0570 15.08837506 17595,6917.888000000001,95.438,540.7090000000002,538.797,0.0
52622.0,STARLINK-4008,PAYLOAD,2022-09-04 14:00:01,15.08849701,0.0001389,53.2168,279.7144,63.223,71.9225,0.00031589,4.744e-05,0.0,0 STARLINK-4008,1 52622U 22052AA  22247.58335648  .00004744  00000-0  31589-3 0  9995,2 52622  53.2168 279.7144 0001389  63.2230  71.9225 15.08849701  1308,6917.851,95.437,540.677,538.755,0.0
52622.0,STARLINK-4008,PAYLOAD,2022-09-04 20:00:01,15.08844314,0.0001358,53.2171,278.5907,71.4202,342.3747,-0.00094995,-0.00015376,0.0,0 STARLINK-4008,1 52622U 22052AA  22247.83334491 -.00015376  00000-0 -94995-3 0  9993,2 52622  53.2171 278.5907 0001358  71.4202 342.3747 15.08844314  1301,6917.8669999999975,95.437,540.672,538.793,0.0
52622.0,STARLINK-4008,PAYLOAD,2022-09-05 04:00:00,15.08857326,0.0001433,53.2172,277.0944,73.9707,351.4152,-0.00043751,-7.247e-05,0.0,0 STARLINK-4008,1 52622U 22052AA  22248.16667824 -.00007247  00000-0 -43751-3 0  9991,2 52622  53.2172 277.0944 0001433  73.9707 351.4152 15.08857326 17695,6917.8269999999975,95.436,540.684,538.701,0.0
52622.0,STARLINK-4008,PAYLOAD,2022-09-05 14:00:01,15.08852122,0.0001468,53.217,275.2253,63.0606,106.8314,-0.00098549,-0.00015943,0.0,0 STARLINK-4008,1 52622U 22052AA  22248.58334491 -.00015943  00000-0 -98549-3 0  9995,2 52622  53.2170 275.2253 0001468  63.0606 106.8314 15.08852122  1304,6917.843000000003,95.437,540.724,538.693,0.0
52622.0,STARLINK-4008,PAYLOAD,2022-09-05 22:00:00,15.0882321,0.0001349,53.2172,273.7273,71.1529,110.3492,-0.00028729,-4.855e-05,0.0,0 STARLINK-4008,1 52622U 22052AA  22248.91667824 -.00004855  00000-0 -28729-3 0  9994,2 52622  53.2172 273.7273 0001349  71.1529 110.3492 15.08823210  1306,6917.932,95.439,540.73,538.863,0.0
52622.0,STARLINK-4008,PAYLOAD,2022-09-06 04:00:00,15.08829879,0.0001460999999999,53.2174,272.6055,72.1002,28.08,-0.0019565999999999,-0.00031284,0.0,0 STARLINK-4008,1 52622U 22052AA  22249.16667824 -.00031284  00000-0 -19566-2 0  9996,2 52622  53.2174 272.6055 0001461  72.1002  28.0800 15.08829879 17847,6917.911,95.438,540.7869999999998,538.766,0.0
52622.0,STARLINK-4008,PAYLOAD,2022-09-06 14:00:01,15.08806098,0.0001548,53.217,270.7364,63.4872,141.1495,0.0013436,0.0002114,0.0,0 STARLINK-4008,1 52622U 22052AA  22249.58334491  .00021140  00000-0  13436-2 0  9991,2 52622  53.2170 270.7364 0001548  63.4872 141.1495 15.08806098  1308,6917.984,95.44,540.92,538.778,0.0
52622.0,STARLINK-4008,PAYLOAD,2022-09-06 20:00:01,15.08807132,0.0001431999999999,53.2173,269.6129,70.9172,52.3938,0.00082234,0.00012812,0.0,0 STARLINK-4008,1 52622U 22052AA  22249.83334491  .00012812  00000-0  82234-3 0  9998,2 52622  53.2173 269.6129 0001432  70.9172  52.3938 15.08807132 17947,6917.981,95.44,540.837,538.855,0.0
52622.0,STARLINK-4008,PAYLOAD,2022-09-06 22:00:00,15.08794653,0.000143,53.2171,269.2385,72.1943,144.0115,0.002732,0.00043406,0.0,0 STARLINK-4008,1 52622U 22052AA  22249.91667824  .00043406  00000-0  27320-2 0  9993,2 52622  53.2171 269.2385 0001430  72.1943 144.0115 15.08794653  1305,6918.019,95.44,540.873,538.895,0.0
